GLOBALSTAR M068         
1 32266U 07048D   24234.88965515 -.00000067  00000+0  20728-3 0  9995
2 32266  51.9880 134.5978 0000539 155.5357 283.4265 12.62796878780031
GLOBALSTAR M079         
1 37188U 10054A   24234.80212810 -.00000070  00000+0  18872-3 0  9990
2 37188  52.0064 331.1645 0000538  87.3427  64.3178 12.62262884639329
GLOBALSTAR M074         
1 37189U 10054B   24234.58010590 -.00000060  00000+0  24504-3 0  9995
2 37189  52.0042 331.2087 0000651 110.8294 351.7466 12.62271621639228
GLOBALSTAR M076         
1 37190U 10054C   24234.85224451 -.00000068  00000+0  20127-3 0  9995
2 37190  52.0051 330.5268 0000975  86.6825  51.3349 12.62255494639337
GLOBALSTAR M077         
1 37191U 10054D   24234.35106830 -.00000066  00000+0  20872-3 0  9996
2 37191  52.0071 288.8220 0000473 120.9544 319.6436 12.62262861639283
GLOBALSTAR M075         
1 37192U 10054E   24234.61516866 -.00000087  00000+0  91129-4 0  9997
2 37192  51.9969  13.6684 0000726  91.7467 349.5057 12.62263101638172
GLOBALSTAR M073         
1 37193U 10054F   24234.46159369 -.00000065  00000+0  21414-3 0  9997
2 37193  52.0056 287.7302 0000524 103.5903 358.8802 12.62268452639981
GLOBALSTAR M083         
1 37739U 11033A   24234.48852383 -.00000100  00000+0  18366-4 0  9992
2 37739  51.9842 236.7857 0000098  28.5651 137.6520 12.62263520609000
GLOBALSTAR M088         
1 37740U 11033B   24234.14105840 -.00000075  00000+0  16092-3 0  9990
2 37740  51.9725 143.5859 0000531  34.8000 112.2816 12.62266361604502
GLOBALSTAR M091         
1 37741U 11033C   24234.85280876 -.00000068  00000+0  19865-3 0  9995
2 37741  51.9993 104.4405 0000565  39.5023  41.6813 12.62266072605644
GLOBALSTAR M085         
1 37742U 11033D   24234.50861341 -.00000094  00000+0  56075-4 0  9994
2 37742  51.9872  56.7888 0000631  67.1113 310.6194 12.62264695605859
GLOBALSTAR M081         
1 37743U 11033E   24234.70721032 -.00000088  00000+0  90463-4 0  9991
2 37743  51.9962  58.7867 0000848  58.0925  22.2006 12.62268327606405
GLOBALSTAR M089         
1 37744U 11033F   24234.58879435 -.00000099  00000+0  25128-4 0  9997
2 37744  51.9950  13.4339 0001097  92.2504 348.1199 12.62267224606852
GLOBALSTAR M084         
1 38040U 11080A   24234.20587449 -.00000093  00000+0  59849-4 0  9990
2 38040  51.9983 241.7283 0000516 108.4967 332.0648 12.62266021584782
GLOBALSTAR M080         
1 38041U 11080B   24234.50861747 -.00000089  00000+0  82163-4 0  9990
2 38041  52.0038 242.3082 0000654  86.5031  50.5235 12.62264490585087
GLOBALSTAR M082         
1 38042U 11080C   24234.36251951 -.00000111  00000+0 -39944-4 0  9991
2 38042  52.0056 198.1656 0000264 274.8657 217.9809 12.62265234585630
GLOBALSTAR M092         
1 38043U 11080D   24234.48869875 -.00000072  00000+0  17810-3 0  9997
2 38043  52.0081 288.1451 0000534 127.1477 339.5308 12.62265491584103
GLOBALSTAR M090         
1 38044U 11080E   24234.31351039 -.00000104  00000+0  84107-6 0  9990
2 38044  51.9865 192.5095 0000165 355.7296 154.1022 12.62266277585740
GLOBALSTAR M086         
1 38045U 11080F   24234.34299899 -.00000098  00000+0  29979-4 0  9995
2 38045  51.9878 192.9468 0001177  23.0482 141.5685 12.62265833585695
GLOBALSTAR M097         
1 39072U 13005A   24234.88797691 -.00000070  00000+0  18590-3 0  9993
2 39072  52.0044 105.5337 0000702  43.0079 317.0843 12.62269733533091
GLOBALSTAR M093         
1 39073U 13005B   24234.78178672 -.00000067  00000+0  20592-3 0  9996
2 39073  51.9810  99.6349 0000680  40.8732 319.2185 12.62263179533072
GLOBALSTAR M094         
1 39074U 13005C   24234.54438763 -.00000102  00000+0  99061-5 0  9990
2 39074  51.9978  14.4400 0000622  75.7692 284.3243 12.62266944534553
GLOBALSTAR M096         
1 39075U 13005D   24234.71600376 -.00000083  00000+0  11646-3 0  9990
2 39075  52.0075  62.1987 0000656  53.9683 306.1244 12.62269108533827
GLOBALSTAR M078         
1 39076U 13005E   24234.13524597  .00000031  00000+0  75362-3 0  9994
2 39076  51.9866 148.8848 0000458 227.4302 132.6526 12.62275415532022
GLOBALSTAR M095         
1 39077U 13005F   24234.16161276 -.00000072  00000+0  17987-3 0  9994
2 39077  51.9792 146.1502 0000418 328.9536  31.1305 12.62263403531886
GLOBALSTAR M087         
1 52888U 22064A   24234.49109001 -.00000065  00000+0  12115-3 0  9998
2 52888  51.9777 340.6689 0009702 166.5014 193.6148 13.37582362106263
